[{"OBJECT_NAME":"STARLINK-30331","OBJECT_ID":"2023-131J","EPOCH":"2026-03-09T10:06:52.396128","MEAN_MOTION":15.27577219,"ECCENTRICITY":0.00011851,"INCLINATION":43.0033,"RA_OF_ASC_NODE":100.9149,"ARG_OF_PERICENTER":268.4448,"MEAN_ANOMALY":91.6268,"EPHEMERIS_TYPE":0,"CLASSIFICATION_TYPE":"U","NORAD_CAT_ID":57740,"ELEMENT_SET_NO":999,"REV_AT_EPOCH":14073,"BSTAR":-5.5499444e-5,"MEAN_MOTION_DOT":-1.789e-5,"MEAN_MOTION_DDOT":0},{"OBJECT_NAME":"LYNK TOWER 6","OBJECT_ID":"2024-043AB","EPOCH":"2026-03-09T21:28:38.303328","MEAN_MOTION":15.29548678,"ECCENTRICITY":0.00097492,"INCLINATION":97.5426,"RA_OF_ASC_NODE":204.1954,"ARG_OF_PERICENTER":232.0253,"MEAN_ANOMALY":128.0107,"EPHEMERIS_TYPE":0,"CLASSIFICATION_TYPE":"U","NORAD_CAT_ID":59123,"ELEMENT_SET_NO":999,"REV_AT_EPOCH":11184,"BSTAR":0.00040142146,"MEAN_MOTION_DOT":0.0001144,"MEAN_MOTION_DDOT":0}]
